*******************************************************************************
 Revised: July 31, 2013                 Venus                           299 / 2
 
 PHYSICAL DATA (updated 2019-Apr-22):
  Vol. Mean Radius (km) =  6051.84+-0.01 Density (g/cm^3)      =  5.204
  Mass x10^23 (kg)      =    48.685      Volume (x10^10 km^3)  = 92.843
  Sidereal rot. period  =   243.018484 d Sid. Rot. Rate (rad/s)= -0.00000029924
  Mean solar day        =   116.7490 d   Equ. gravity  m/s^2   =  8.870
  Mom. of Inertia       =     0.33       Core radius (km)      = ~3200
  Geometric Albedo      =     0.65       Potential Love # k2   = ~0.25
  GM (km^3/s^2)         = 324858.592     Equatorial Radius, Re = 6051.893 km
  GM 1-sigma (km^3/s^2) =    +-0.006     Mass ratio (Sun/Venus)= 408523.72
  Atmos. pressure (bar) =  90            Max. angular diam.    =   60.2"
  Mean Temperature (K)  = 735            Visual mag. V(1,0)    =   -4.40
  Obliquity to orbit    = 177.3 deg      Hill's sphere rad.,Rp =  167.1
  Sidereal orb. per., y =   0.61519726   Orbit speed, km/s     =   35.021
  Sidereal orb. per., d = 224.70079922   Escape speed, km/s    =   10.361
                                 Perihelion  Aphelion    Mean
  Solar Constant (W/m^2)         2759        2650        2614
  Maximum Planetary IR (W/m^2)    153         153         153
  Minimum Planetary IR (W/m^2)    153         153         153
*******************************************************************************
 
 
*******************************************************************************
Ephemeris / WWW_USER Sat Dec 14 08:35:42 2019 Pasadena, USA      / Horizons    
*******************************************************************************
Target body name: Venus (299)                     {source: DE431mx}
Center body name: Solar System Barycenter (0)     {source: DE431mx}
Center-site name: BODY CENTER
*******************************************************************************
Start time      : A.D. 2020-Jan-01 00:00:00.0000 TDB
Stop  time      : A.D. 2030-Jan-01 00:00:00.0000 TDB
Step-size       : 1440 minutes
*******************************************************************************
Center geodetic : 0.00000000,0.00000000,0.0000000 {E-lon(deg),Lat(deg),Alt(km)}
Center cylindric: 0.00000000,0.00000000,0.0000000 {E-lon(deg),Dxy(km),Dz(km)}
Center radii    : (undefined)                                                  
Output units    : AU-D                                                         
Output type     : GEOMETRIC cartesian states
Output format   : 3 (position, velocity, LT, range, range-rate)
Reference frame : ICRF/J2000.0                                                 
Coordinate systm: Ecliptic and Mean Equinox of Reference Epoch                 
*******************************************************************************
JDTDB
   X     Y     Z
   VX    VY    VZ
   LT    RG    RR
*******************************************************************************
$$SOE
2462230.500000000 = A.D. 2029-Apr-04 00:00:00.0000 TDB 
 X = 6.778428144960528E-01 Y = 2.570475138206123E-01 Z =-3.546685037605723E-02
 VX=-7.273107528712210E-03 VY= 1.881498399512869E-02 VZ= 6.781746290562270E-04
 LT= 4.191937104077475E-03 RG= 7.258114100790133E-01 RR=-1.622067872383452E-04
2462231.500000000 = A.D. 2029-Apr-05 00:00:00.0000 TDB 
 X = 6.703079450905218E-01 Y = 2.757599216924377E-01 Z =-3.477498258253647E-02
 VX=-7.795702592670134E-03 VY= 1.860739208017617E-02 VZ= 7.054738343551299E-04
 LT= 4.190995535513478E-03 RG= 7.256483825358622E-01 RR=-1.638276135700799E-04
2462232.500000000 = A.D. 2029-Apr-06 00:00:00.0000 TDB 
 X = 6.622533346882759E-01 Y = 2.942574433049630E-01 Z =-3.405608053906874E-02
 VX=-8.312521641554250E-03 VY= 1.838523651804666E-02 VZ= 7.322395565121543E-04
 LT= 4.190044965383508E-03 RG= 7.254837964198777E-01 RR=-1.653237389072822E-04
2462233.500000000 = A.D. 2029-Apr-07 00:00:00.0000 TDB 
 X = 6.536849623421079E-01 Y = 3.125255920364520E-01 Z =-3.331068838511682E-02
 VX=-8.823159214614159E-03 VY= 1.814867325827403E-02 VZ= 7.584505444618449E-04
 LT= 4.189086117174286E-03 RG= 7.253177769989015E-01 RR=-1.666940447366668E-04
2462234.500000000 = A.D. 2029-Apr-08 00:00:00.0000 TDB 
 X = 6.446092106682750E-01 Y = 3.305500428990398E-01 Z =-3.253937132356959E-02
 VX=-9.327213698896410E-03 VY= 1.789786960714844E-02 VZ= 7.840859253237043E-04
 LT= 4.188119720568484E-03 RG= 7.251504506135721E-01 RR=-1.679375041500002E-04
2462235.500000000 = A.D. 2029-Apr-09 00:00:00.0000 TDB 
 X = 6.350328618390302E-01 Y = 3.483166438582291E-01 Z =-3.174271523385955E-02
 VX=-9.824287648577500E-03 VY= 1.763300415168666E-02 VZ= 8.091252217755528E-04
 LT= 4.187146510912699E-03 RG= 7.249819445852064E-01 RR=-1.690531828703190E-04
2462236.500000000 = A.D. 2029-Apr-10 00:00:00.0000 TDB 
 X = 6.249630932558939E-01 Y = 3.658114270718105E-01 Z =-3.092132626777428E-02
 VX=-1.031398810410496E-02 VY= 1.735426667449532E-02 VZ= 8.335483692899328E-04
 LT= 4.186167228679526E-03 RG= 7.248123871226594E-01 RR=-1.700402402614554E-04
2462237.500000000 = A.D. 2029-Apr-11 00:00:00.0000 TDB 
 X = 6.144074729039936E-01 Y = 3.830206200390535E-01 Z =-3.007583042810644E-02
 VX=-1.079592691087974E-02 VY= 1.706185805942968E-02 VZ= 8.573357332179133E-04
 LT= 4.185182618923894E-03 RG= 7.246419072281929E-01 RR=-1.708979303097148E-04
2462238.500000000 = A.D. 2029-Apr-12 00:00:00.0000 TDB 
 X = 6.033739543880634E-01 Y = 3.999306566509145E-01 Z =-2.920687313030312E-02
 VX=-1.126972103720002E-02 VY= 1.675599018795524E-02 VZ= 8.804681257035112E-04
 LT= 4.184193430733818E-03 RG= 7.244706346023765E-01 RR=-1.716256025635110E-04
2462239.500000000 = A.D. 2029-Apr-13 00:00:00.0000 TDB 
 X = 5.918708716509935E-01 Y = 4.165281881319202E-01 Z =-2.831511874729284E-02
 VX=-1.173499289117304E-02 VY= 1.643688582612346E-02 VZ= 9.029268224112072E-04
 LT= 4.183200416675915E-03 RG= 7.242986995480805E-01 RR=-1.722227030158624E-04
2462240.500000000 = A.D. 2029-Apr-14 00:00:00.0000 TDB 
 X = 5.799069333761089E-01 Y = 4.328000938642990E-01 Z =-2.740125013768622E-02
 VX=-1.219137063628902E-02 VY= 1.610477850207748E-02 VZ= 9.246935790477895E-04
 LT= 4.182204332235993E-03 RG= 7.241262328736177E-01 RR=-1.726887749156500E-04
2462241.500000000 = A.D. 2029-Apr-15 00:00:00.0000 TDB 
 X = 5.674912170746297E-01 Y = 4.487334920848569E-01 Z =-2.646596815756544E-02
 VX=-1.263848850547750E-02 VY= 1.575991237403145E-02 VZ= 9.457506476610662E-04
 LT= 4.181205935255026E-03 RG= 7.239533657950848E-01 RR=-1.730234595913415E-04
2462242.500000000 = A.D. 2029-Apr-16 00:00:00.0000 TDB 
 X = 5.546331628600182E-01 Y = 4.643157504450482E-01 Z =-2.550999115609206E-02
 VX=-1.307598711312812E-02 VY= 1.540254208865648E-02 VZ= 9.660807926981730E-04
 LT= 4.180205985360618E-03 RG= 7.237802298379250E-01 RR=-1.732264971108573E-04
2462243.500000000 = A.D. 2029-Apr-17 00:00:00.0000 TDB 
 X = 5.413425669114189E-01 Y = 4.795344964245966E-01 Z =-2.453405445518898E-02
 VX=-1.350351376494085E-02 VY= 1.503293262980904E-02 VZ= 9.856673068004457E-04
 LT= 4.179205243394921E-03 RG= 7.236069567378728E-01 RR=-1.732977269337674E-04
2462244.500000000 = A.D. 2029-Apr-18 00:00:00.0000 TDB 
 X = 5.276295746284594E-01 Y = 4.943776275890265E-01 Z =-2.353890981356233E-02
 VX=-1.392072276523151E-02 VY= 1.465135915760080E-02 VZ= 1.004494026321447E-03
 LT= 4.178204470838876E-03 RG= 7.234336783412659E-01 RR=-1.732370884799888E-04
2462245.500000000 = A.D. 2029-Apr-19 00:00:00.0000 TDB 
 X = 5.135046734801811E-01 Y = 5.088333216813993E-01 Z =-2.252532487535528E-02
 VX=-1.432727572133457E-02 VY= 1.425810683774166E-02 VZ= 1.022545346543817E-03
 LT= 4.177204429233459E-03 RG= 7.232605265048371E-01 RR=-1.730446216159133E-04
2462246.500000000 = A.D. 2029-Apr-20 00:00:00.0000 TDB 
 X = 4.989786855511391E-01 Y = 5.228900465385341E-01 Z =-2.149408260374220E-02
 VX=-1.472284184480262E-02 VY= 1.385347066116468E-02 VZ= 1.039806236577945E-03
 LT= 4.176205879598318E-03 RG= 7.230876329950536E-01 RR=-1.727204670668882E-04
2462247.500000000 = A.D. 2029-Apr-21 00:00:00.0000 TDB 
 X = 4.840627597880481E-01 Y = 5.365365698219923E-01 Z =-2.044598069979186E-02
 VX=-1.510709824905839E-02 VY= 1.343775525392748E-02 VZ= 1.056262253922519E-03
 LT= 4.175209581848263E-03 RG= 7.229151293870860E-01 RR=-1.722648667512174E-04
2462248.500000000 = A.D. 2029-Apr-22 00:00:00.0000 TDB 
 X = 4.687683639506950E-01 Y = 5.497619685541038E-01 Z =-1.938183100694682E-02
 VX=-1.547973024315207E-02 VY= 1.301127467739931E-02 VZ= 1.071899558666953E-03
 LT= 4.174216294208048E-03 RG= 7.227431469634815E-01 RR=-1.716781640325319E-04
2462249.500000000 = A.D. 2029-Apr-23 00:00:00.0000 TDB 
 X = 4.531072762711864E-01 Y = 5.625556384493332E-01 Z =-1.830245890148864E-02
 VX=-1.584043162127359E-02 VY= 1.257435221875790E-02 VZ= 1.086704927315807E-03
 LT= 4.173226772625953E-03 RG= 7.225718166126263E-01 RR=-1.709608038886151E-04
2462250.500000000 = A.D. 2029-Apr-24 00:00:00.0000 TDB 
 X = 4.370915768259535E-01 Y = 5.749073030313142E-01 Z =-1.720870266937505E-02
 VX=-1.618890494766638E-02 VY= 1.212732017183509E-02 VZ= 1.100665766215257E-03
 LT= 4.172241770186616E-03 RG= 7.224012687270841E-01 RR=-1.701133329952574E-04
2462251.500000000 = A.D. 2029-Apr-25 00:00:00.0000 TDB 
 X = 4.207336386252927E-01 Y = 5.868070225259239E-01 Z =-1.610141286985881E-02
 VX=-1.652486183658601E-02 VY= 1.167051960836520E-02 VZ= 1.113770124561824E-03
 LT= 4.171262036523648E-03 RG= 7.222316331018908E-01 RR=-1.691363997238860E-04
2462252.500000000 = A.D. 2029-Apr-26 00:00:00.0000 TDB 
 X = 4.040461184255725E-01 Y = 5.982452025208365E-01 Z =-1.498145168631407E-02
 VX=-1.684802322694414E-02 VY= 1.120430013970466E-02 VZ= 1.126006706973450E-03
 LT= 4.170288317232499E-03 RG= 7.220630388328970E-01 RR=-1.680307540514907E-04
